[{"OBJECT_NAME":"STARLINK-3183","OBJECT_ID":"2022-005AG","EPOCH":"2025-10-23T16:00:03.998880","MEAN_MOTION":15.54942834,"ECCENTRICITY":0.0001363,"INCLINATION":53.2173,"RA_OF_ASC_NODE":180.4407,"ARG_OF_PERICENTER":101.4951,"MEAN_ANOMALY":141.2997,"EPHEMERIS_TYPE":0,"CLASSIFICATION_TYPE":"U","NORAD_CAT_ID":51134,"ELEMENT_SET_NO":999,"REV_AT_EPOCH":566,"BSTAR":0.017451,"MEAN_MOTION_DOT":0.0131694,"MEAN_MOTION_DDOT":0},{"OBJECT_NAME":"STARLINK-3363","OBJECT_ID":"2022-005AH","EPOCH":"2025-10-23T00:06:17.180064","MEAN_MOTION":15.08844255,"ECCENTRICITY":0.00012427,"INCLINATION":53.2183,"RA_OF_ASC_NODE":197.1107,"ARG_OF_PERICENTER":92.7064,"MEAN_ANOMALY":267.4071,"EPHEMERIS_TYPE":0,"CLASSIFICATION_TYPE":"U","NORAD_CAT_ID":51135,"ELEMENT_SET_NO":999,"REV_AT_EPOCH":20794,"BSTAR":-6.1912948e-5,"MEAN_MOTION_DOT":-1.273e-5,"MEAN_MOTION_DDOT":0},{"OBJECT_NAME":"STARLINK-3253","OBJECT_ID":"2022-005AJ","EPOCH":"2025-10-23T11:01:59.471040","MEAN_MOTION":15.08840925,"ECCENTRICITY":0.0001484,"INCLINATION":53.2171,"RA_OF_ASC_NODE":194.9651,"ARG_OF_PERICENTER":95.1126,"MEAN_ANOMALY":265.0036,"EPHEMERIS_TYPE":0,"CLASSIFICATION_TYPE":"U","NORAD_CAT_ID":51136,"ELEMENT_SET_NO":999,"REV_AT_EPOCH":20801,"BSTAR":6.411e-5,"MEAN_MOTION_DOT":7.33e-6,"MEAN_MOTION_DDOT":0},{"OBJECT_NAME":"STARLINK-3180","OBJECT_ID":"2022-005AK","EPOCH":"2025-10-23T00:04:55.534656","MEAN_MOTION":15.08835436,"ECCENTRICITY":0.00015147,"INCLINATION":53.2168,"RA_OF_ASC_NODE":197.2178,"ARG_OF_PERICENTER":82.4695,"MEAN_ANOMALY":277.647,"EPHEMERIS_TYPE":0,"CLASSIFICATION_TYPE":"U","NORAD_CAT_ID":51137,"ELEMENT_SET_NO":999,"REV_AT_EPOCH":20795,"BSTAR":2.5369073e-5,"MEAN_MOTION_DOT":1.16e-6,"MEAN_MOTION_DDOT":0},{"OBJECT_NAME":"STARLINK-3177","OBJECT_ID":"2022-005AL","EPOCH":"2025-10-23T00:15:31.252896","MEAN_MOTION":15.08841891,"ECCENTRICITY":2.583e-5,"INCLINATION":53.219,"RA_OF_ASC_NODE":197.1879,"ARG_OF_PERICENTER":135.6824,"MEAN_ANOMALY":224.4189,"EPHEMERIS_TYPE":0,"CLASSIFICATION_TYPE":"U","NORAD_CAT_ID":51138,"ELEMENT_SET_NO":999,"REV_AT_EPOCH":20794,"BSTAR":1.5491639e-5,"MEAN_MOTION_DOT":-4.1e-7,"MEAN_MOTION_DDOT":0},{"OBJECT_NAME":"STARLINK-3172","OBJECT_ID":"2022-005AM","EPOCH":"2025-10-23T11:03:24.573312","MEAN_MOTION":15.08836269,"ECCENTRICITY":0.0001488,"INCLINATION":53.218,"RA_OF_ASC_NODE":195.1743,"ARG_OF_PERICENTER":95.5261,"MEAN_ANOMALY":264.5901,"EPHEMERIS_TYPE":0,"CLASSIFICATION_TYPE":"U","NORAD_CAT_ID":51139,"ELEMENT_SET_NO":999,"REV_AT_EPOCH":20802,"BSTAR":1.2448e-5,"MEAN_MOTION_DOT":-9.0e-7,"MEAN_MOTION_DDOT":0},{"OBJECT_NAME":"STARLINK-3175","OBJECT_ID":"2022-005AN","EPOCH":"2025-10-23T00:11:36.409920","MEAN_MOTION":15.08829269,"ECCENTRICITY":0.00018143,"INCLINATION":53.2177,"RA_OF_ASC_NODE":197.2085,"ARG_OF_PERICENTER":91.3315,"MEAN_ANOMALY":268.7885,"EPHEMERIS_TYPE":0,"CLASSIFICATION_TYPE":"U","NORAD_CAT_ID":51140,"ELEMENT_SET_NO":999,"REV_AT_EPOCH":20795,"BSTAR":0.00025056126,"MEAN_MOTION_DOT":3.701e-5,"MEAN_MOTION_DDOT":0},{"OBJECT_NAME":"STARLINK-3179","OBJECT_ID":"2022-005AP","EPOCH":"2025-10-23T10:51:25.776288","MEAN_MOTION":15.08839649,"ECCENTRICITY":0.0001381,"INCLINATION":53.2165,"RA_OF_ASC_NODE":195.2036,"ARG_OF_PERICENTER":78.568,"MEAN_ANOMALY":281.5468,"EPHEMERIS_TYPE":0,"CLASSIFICATION_TYPE":"U","NORAD_CAT_ID":51141,"ELEMENT_SET_NO":999,"REV_AT_EPOCH":20802,"BSTAR":3.1252e-5,"MEAN_MOTION_DOT":2.09e-6,"MEAN_MOTION_DDOT":0},{"OBJECT_NAME":"STARLINK-3184","OBJECT_ID":"2022-005AR","EPOCH":"2025-10-23T00:56:34.502208","MEAN_MOTION":15.0885055,"ECCENTRICITY":0.00014933,"INCLINATION":53.2171,"RA_OF_ASC_NODE":207.0573,"ARG_OF_PERICENTER":90.6562,"MEAN_ANOMALY":269.4602,"EPHEMERIS_TYPE":0,"CLASSIFICATION_TYPE":"U","NORAD_CAT_ID":51143,"ELEMENT_SET_NO":999,"REV_AT_EPOCH":20781,"BSTAR":9.3360152e-5,"MEAN_MOTION_DOT":1.199e-5,"MEAN_MOTION_DDOT":0},{"OBJECT_NAME":"STARLINK-3185","OBJECT_ID":"2022-005AS","EPOCH":"2025-10-23T10:58:06.085632","MEAN_MOTION":15.0884748,"ECCENTRICITY":0.0001336,"INCLINATION":53.2178,"RA_OF_ASC_NODE":195.1909,"ARG_OF_PERICENTER":87.1505,"MEAN_ANOMALY":272.964,"EPHEMERIS_TYPE":0,"CLASSIFICATION_TYPE":"U","NORAD_CAT_ID":51144,"ELEMENT_SET_NO":999,"REV_AT_EPOCH":20802,"BSTAR":3.4757e-5,"MEAN_MOTION_DOT":2.65e-6,"MEAN_MOTION_DDOT":0},{"OBJECT_NAME":"STARLINK-3359","OBJECT_ID":"2022-005AW","EPOCH":"2025-10-23T10:46:13.118880","MEAN_MOTION":15.08838809,"ECCENTRICITY":0.0001353,"INCLINATION":53.2166,"RA_OF_ASC_NODE":205.4213,"ARG_OF_PERICENTER":87.747,"MEAN_ANOMALY":272.3678,"EPHEMERIS_TYPE":0,"CLASSIFICATION_TYPE":"U","NORAD_CAT_ID":51148,"ELEMENT_SET_NO":999,"REV_AT_EPOCH":20787,"BSTAR":0.00012104,"MEAN_MOTION_DOT":1.639e-5,"MEAN_MOTION_DDOT":0},{"OBJECT_NAME":"STARLINK-3360","OBJECT_ID":"2022-005AX","EPOCH":"2025-10-23T11:23:14.826624","MEAN_MOTION":15.08836489,"ECCENTRICITY":0.0001248,"INCLINATION":53.2176,"RA_OF_ASC_NODE":204.9228,"ARG_OF_PERICENTER":84.1481,"MEAN_ANOMALY":275.9654,"EPHEMERIS_TYPE":0,"CLASSIFICATION_TYPE":"U","NORAD_CAT_ID":51149,"ELEMENT_SET_NO":999,"REV_AT_EPOCH":20788,"BSTAR":2.3303e-5,"MEAN_MOTION_DOT":8.3e-7,"MEAN_MOTION_DDOT":0}]
