STARLINK-3183           
1 51134U 22005AG  25296.66671296  .01316940  00000+0  17451-1 0  9992
2 51134  53.2173 180.4407 0001362 101.4951 141.2997 15.54942834  5669
STARLINK-3363           
1 51135U 22005AH  25296.00436551 -.00001273  00000+0 -61913-4 0  9990
2 51135  53.2183 197.1107 0001242  92.7064 267.4071 15.08844255207943
STARLINK-3253           
1 51136U 22005AJ  25296.45971611  .00000733  00000+0  64110-4 0  9991
2 51136  53.2171 194.9651 0001484  95.1126 265.0036 15.08840925208018
STARLINK-3180           
1 51137U 22005AK  25296.00342054  .00000116  00000+0  25369-4 0  9994
2 51137  53.2168 197.2178 0001514  82.4695 277.6470 15.08835436207953
STARLINK-3177           
1 51138U 22005AL  25296.01077839 -.00000041  00000+0  15492-4 0  9996
2 51138  53.2190 197.1879 0000258 135.6824 224.4189 15.08841891207943
STARLINK-3172           
1 51139U 22005AM  25296.46070108 -.00000090  00000+0  12448-4 0  9990
2 51139  53.2180 195.1743 0001487  95.5261 264.5901 15.08836269208025
STARLINK-3175           
1 51140U 22005AN  25296.00806030  .00003701  00000+0  25056-3 0  9992
2 51140  53.2177 197.2085 0001814  91.3315 268.7885 15.08829269207953
STARLINK-3179           
1 51141U 22005AP  25296.45238167  .00000209  00000+0  31252-4 0  9998
2 51141  53.2165 195.2036 0001380  78.5680 281.5468 15.08839649208027
STARLINK-3184           
1 51143U 22005AR  25296.03928822  .00001199  00000+0  93360-4 0  9995
2 51143  53.2171 207.0573 0001493  90.6562 269.4602 15.08850550207818
STARLINK-3185           
1 51144U 22005AS  25296.45701489  .00000265  00000+0  34757-4 0  9998
2 51144  53.2178 195.1909 0001336  87.1505 272.9640 15.08847480208023
STARLINK-3359           
1 51148U 22005AW  25296.44876296  .00001639  00000+0  12104-3 0  9997
2 51148  53.2166 205.4213 0001353  87.7470 272.3678 15.08838809207875
STARLINK-3360           
1 51149U 22005AX  25296.47447717  .00000083  00000+0  23303-4 0  9999
2 51149  53.2176 204.9228 0001247  84.1481 275.9654 15.08836489207888
